HORYU 2                 
1 38340U 12025D   17345.56965989  .00000277  00000-0  48821-4 0  9998
2 38340  98.3759 355.7572 0012850  88.4633 271.8047 14.75463244289034
